IRIDIUM 106             
1 41917U 17003A   25320.37126759  .00000302  00000+0  10067-3 0  9996
2 41917  86.4004 177.4620 0001655  93.8174 266.3211 14.34221223462706
IRIDIUM 103             
1 41918U 17003B   25319.31206168  .00000485  00000+0  16621-3 0  9996
2 41918  86.4005 177.8043 0001911  71.7705 288.3699 14.34215570462578
IRIDIUM 109             
1 41919U 17003C   25320.36493559  .00000280  00000+0  92943-4 0  9991
2 41919  86.4005 177.4211 0002043  82.4225 277.7202 14.34213415462696
IRIDIUM 102             
1 41920U 17003D   25320.12391619  .00000320  00000+0  10714-3 0  9991
2 41920  86.4001 177.4500 0002164  85.6881 274.4562 14.34214322462749
IRIDIUM 105             
1 41921U 17003E   25320.44349108  .00000468  00000+0  16000-3 0  9990
2 41921  86.3971 145.8161 0001930  84.5569 275.5847 14.34215930464643
IRIDIUM 104             
1 41922U 17003F   25320.34590656  .00000565  00000+0  19482-3 0  9991
2 41922  86.4004 177.3965 0002238  77.3144 282.8302 14.34214092462761
IRIDIUM 114             
1 41923U 17003G   25320.35225098  .00000516  00000+0  17702-3 0  9997
2 41923  86.4004 177.3780 0002066  80.3571 279.7858 14.34218472462749
IRIDIUM 108             
1 41924U 17003H   25320.45030575  .00000694  00000+0  24091-3 0  9999
2 41924  86.3969 145.7056 0002117  92.6731 267.4707 14.34216892464614
